CUBEBUG-2 (LO-74)       
1 39440U 13066AA  26167.59428339  .00003852  00000+0  35723-3 0  9991
2 39440  97.8908 116.5698 0058425  30.9918 329.4727 14.93757220676905
FUNCUBE-1 (AO-73)       
1 39444U 13066AE  26167.45994049  .00005650  00000+0  35176-3 0  9996
2 39444  97.8275 138.8906 0035581 203.4552 156.5055 15.09483494679558
UWE-3                   
1 39446U 13066AG  26167.41356749  .00003778  00000+0  32608-3 0  9999
2 39446  97.8696 123.4820 0047700 323.7124  36.0865 14.97020137677465
UNISAT-6                
1 40012U 14033C   26167.39371377  .00002226  00000+0  24236-3 0  9991
2 40012  97.7877 320.1193 0046272  71.8369 288.7878 14.88243258646041
DUCHIFAT-1              
1 40021U 14033M   26166.42257015  .00087303  00000+0  90897-3 0  9991
2 40021  98.0462 225.3358 0003280 119.3803 240.7782 15.64281009655477
QB50P1                  
1 40025U 14033R   26167.55691678  .00006273  00000+0  30978-3 0  9998
2 40025  98.0959 178.6589 0007736 217.5219 142.5474 15.18252996652937
LILACSAT-2              
1 40908U 15049K   26167.56277610  .00014164  00000+0  24175-3 0  9993
2 40908  97.4641 204.3807 0005486 248.0820 111.9849 15.51427567595651
FOX-1A (AO-85)          
1 40967U 15058D   26167.54766444  .00001891  00000+0  17773-3 0  9993
2 40967  64.7762 280.9713 0130420  56.8350 304.5193 14.90967049113477
CAS-2T & KS-1Q          
1 41847U 16066G   26167.47875323  .00001532  00000+0  22161-3 0  9999
2 41847  98.3821 243.2232 0342764 131.6208 231.4892 14.44692550504695
RADFXSAT (FOX-1B)       
1 43017U 17073E   26167.61266245  .00006326  00000+0  27762-3 0  9990
2 43017  97.4701  34.8391 0149639 331.2657  28.0388 15.12711269465304
DIWATA-2B               
1 43678U 18084H   26167.56968500  .00001949  00000+0  15988-3 0  9996
2 43678  98.1175   3.7510 0012442 172.0673 188.0749 15.00449390416122
ES'HAIL 2               
1 43700U 18090A   26167.54737944  .00000142  00000+0  00000+0 0  9992
2 43700   0.0175   8.9083 0001591 115.2512   3.4938  1.00270299 27679
FOX-1CLIFF (AO-95)      
1 43770U 18099N   26167.16008802  .00008871  00000+0  34028-3 0  9998
2 43770  97.4381 227.4098 0008085   1.8957 358.2311 15.26694491413062
ITASAT                  
1 43786U 18099AE  26167.09945745  .00005979  00000+0  28803-3 0  9993
2 43786  97.4027 218.6326 0012212   4.0961 356.0371 15.19046010412745
JY1SAT (JO-97)          
1 43803U 18099AX  26167.44328630  .00014193  00000+0  43847-3 0  9993
2 43803  97.4128 230.2748 0004308 265.9088  94.1663 15.33633912413519
UWE-4                   
1 43880U 18111E   26167.05014457  .00026306  00000+0  53861-3 0  9995
2 43880  97.5856  95.3888 0005718 347.9262  12.1848 15.46065532410602
TIANYAN 01              
1 44881U 19093C   26167.64087529  .00001138  00000+0  13440-3 0  9997
2 44881  97.7539 239.8862 0015143  88.4740 271.8211 14.86521422351332
RS-44 & BREEZE-KM R/B   
1 44909U 19096E   26167.53610533  .00000013  00000+0  26288-5 0  9993
2 44909  82.5219 340.1377 0218135 145.6827 215.8590 12.79748877302266
SALSAT                  
1 46495U 20068K   26167.55682940  .00006231  00000+0  21872-3 0  9999
2 46495  97.8845 170.5831 0008036 310.6288  49.4251 15.29791688315269
XW-3 (CAS-9)            
1 50466U 21131B   26167.63809569  .00000599  00000+0  19862-3 0  9998
2 50466  98.4988 260.0306 0005396  98.1017 262.0785 14.41358016235031
GREENCUBE (IO-117)      
1 53109U 22080E   26164.29338770 -.00000003  00000+0  00000+0 0  9990
2 53109  70.1444 299.5995 0008910 290.4576  69.5127  6.42583230 91811
UMKA 1 (RS40S)          
1 57172U 23091G   26167.56754940  .00005503  00000+0  25207-3 0  9990
2 57172  97.5049 226.2671 0014228 119.5905 240.6750 15.20813268163911
CUBESX-HSE 3 (RS42S)    
1 57178U 23091N   26167.58569384  .00011148  00000+0  37154-3 0  9990
2 57178  97.5092 233.1652 0012043  96.6947 263.5665 15.31202740164330
MONITOR-3 (RS58S)       
1 57180U 23091Q   26167.60885611  .00008570  00000+0  31731-3 0  9990
2 57180  97.5084 231.0505 0013113 102.6131 257.6575 15.27832389164203
MONITOR-4 (RS57S)       
1 57182U 23091S   26167.58794580  .00009092  00000+0  33559-3 0  9993
2 57182  97.5078 231.0009 0013112 103.0296 257.2408 15.27917489164209
MONITOR-2 (RS39S)       
1 57184U 23091U   26167.58802535  .00004232  00000+0  20569-3 0  9993
2 57184  97.5073 225.8748 0012723 112.8656 247.3923 15.18905860163865
SVYATOBOR 1 (RS60S)     
1 57187U 23091X   26167.60052363  .00007599  00000+0  29254-3 0  9994
2 57187  97.5090 231.4142 0010887  96.1567 264.0912 15.26607248164225
VIZARD-METEO (RS38S)    
1 57189U 23091Z   26167.56130806  .00013493  00000+0  38656-3 0  9996
2 57189  97.5094 237.0338 0008296  79.6026 280.6152 15.36009102164593
POLYTECH-UNIVERSE 3 (R*)
1 57191U 23091AB  26167.54943608  .00004209  00000+0  20310-3 0  9992
2 57191  97.5047 225.3409 0016820 128.7799 231.4941 15.19108549163852
UTMN 2 (RS27S)          
1 57203U 23091AP  26167.60360912  .00010856  00000+0  35293-3 0  9995
2 57203  97.5088 234.8164 0009289  85.5494 274.6808 15.32040058164450
