OBJECT_NAME,OBJECT_ID,EPOCH,MEAN_MOTION,ECCENTRICITY,INCLINATION,RA_OF_ASC_NODE,ARG_OF_PERICENTER,MEAN_ANOMALY,EPHEMERIS_TYPE,CLASSIFICATION_TYPE,NORAD_CAT_ID,ELEMENT_SET_NO,REV_AT_EPOCH,BSTAR,MEAN_MOTION_DOT,MEAN_MOTION_DDOT
CUBEBUG-2 (LO-74),2013-066AA,2026-06-16T14:15:46.084896,14.93757220,.00584256,97.8908,116.5698,30.9918,329.4727,0,U,39440,999,67690,.35723127E-3,.3852E-4,0
FUNCUBE-1 (AO-73),2013-066AE,2026-06-16T11:02:18.858336,15.09483494,.00355817,97.8275,138.8906,203.4552,156.5055,0,U,39444,999,67955,.3517602E-3,.565E-4,0
UWE-3,2013-066AG,2026-06-16T09:55:32.231136,14.97020137,.00477002,97.8696,123.4820,323.7124,36.0865,0,U,39446,999,67746,.3260796E-3,.3778E-4,0
UNISAT-6,2014-033C,2026-06-16T09:26:56.869728,14.88243258,.00462729,97.7877,320.1193,71.8369,288.7878,0,U,40012,999,64604,.24236056E-3,.2226E-4,0
DUCHIFAT-1,2014-033M,2026-06-15T10:08:30.060960,15.64281009,.000328,98.0462,225.3358,119.3803,240.7782,0,U,40021,999,65547,.90896671E-3,.87303E-3,0
QB50P1,2014-033R,2026-06-16T13:21:57.609792,15.18252996,.00077363,98.0959,178.6589,217.5219,142.5474,0,U,40025,999,65293,.30977853E-3,.6273E-4,0
LILACSAT-2,2015-049K,2026-06-16T13:30:23.855040,15.51427567,.00054864,97.4641,204.3807,248.0820,111.9849,0,U,40908,999,59565,.24174537E-3,.14164E-3,0
FOX-1A (AO-85),2015-058D,2026-06-16T13:08:38.207616,14.90967049,.01304208,64.7762,280.9713,56.8350,304.5193,0,U,40967,999,11347,.17773093E-3,.1891E-4,0
CAS-2T & KS-1Q,2016-066G,2026-06-16T11:29:24.279072,14.44692550,.03427646,98.3821,243.2232,131.6208,231.4892,0,U,41847,999,50469,.22160614E-3,.1532E-4,0
RADFXSAT (FOX-1B),2017-073E,2026-06-16T14:42:14.035680,15.12711269,.0149639,97.4701,34.8391,331.2657,28.0388,0,U,43017,999,46530,.27762433E-3,.6326E-4,0
DIWATA-2B,2018-084H,2026-06-16T13:40:20.784000,15.00449390,.0012442,98.1175,3.7510,172.0673,188.0749,0,U,43678,999,41612,.1598843E-3,.1949E-4,0
ES'HAIL 2,2018-090A,2026-06-16T13:08:13.583616,1.00270299,.00015916,0.0175,8.9083,115.2512,3.4938,0,U,43700,999,2767,0,.142E-5,0
FOX-1CLIFF (AO-95),2018-099N,2026-06-16T03:50:31.604928,15.26694491,.00080851,97.4381,227.4098,1.8957,358.2311,0,U,43770,999,41306,.34028274E-3,.8871E-4,0
ITASAT,2018-099AE,2026-06-16T02:23:13.123680,15.19046010,.00122123,97.4027,218.6326,4.0961,356.0371,0,U,43786,999,41274,.28803335E-3,.5979E-4,0
JY1SAT (JO-97),2018-099AX,2026-06-16T10:38:19.936320,15.33633912,.0004308,97.4128,230.2748,265.9088,94.1663,0,U,43803,999,41351,.43847401E-3,.14193E-3,0
UWE-4,2018-111E,2026-06-16T01:12:12.490848,15.46065532,.00057183,97.5856,95.3888,347.9262,12.1848,0,U,43880,999,41060,.53861064E-3,.26306E-3,0
TIANYAN 01,2019-093C,2026-06-16T15:22:51.625056,14.86521422,.00151433,97.7539,239.8862,88.4740,271.8211,0,U,44881,999,35133,.1343981E-3,.1138E-4,0
RS-44 & BREEZE-KM R/B,2019-096E,2026-06-16T12:51:59.500512,12.79748877,.02181355,82.5219,340.1377,145.6827,215.8590,0,U,44909,999,30226,.2628816E-5,.13E-6,0
SALSAT,2020-068K,2026-06-16T13:21:50.060160,15.29791688,.00080362,97.8845,170.5831,310.6288,49.4251,0,U,46495,999,31526,.21871649E-3,.6231E-4,0
XW-3 (CAS-9),2021-131B,2026-06-16T15:18:51.467616,14.41358016,.0005396,98.4988,260.0306,98.1017,262.0785,0,U,50466,999,23503,.19861551E-3,.599E-5,0
GREENCUBE (IO-117),2022-080E,2026-06-13T07:02:28.697280,6.42583230,.00089108,70.1444,299.5995,290.4576,69.5127,0,U,53109,999,9181,0,-.3E-7,0
UMKA 1 (RS40S),2023-091G,2026-06-16T13:37:16.268160,15.20813268,.00142283,97.5049,226.2671,119.5905,240.6750,0,U,57172,999,16391,.25207188E-3,.5503E-4,0
CUBESX-HSE 3 (RS42S),2023-091N,2026-06-16T14:03:23.947776,15.31202740,.00120433,97.5092,233.1652,96.6947,263.5665,0,U,57178,999,16433,.37153781E-3,.11148E-3,0
MONITOR-3 (RS58S),2023-091Q,2026-06-16T14:36:45.167904,15.27832389,.0013113,97.5084,231.0505,102.6131,257.6575,0,U,57180,999,16420,.31730694E-3,.857E-4,0
MONITOR-4 (RS57S),2023-091S,2026-06-16T14:06:38.517120,15.27917489,.0013112,97.5078,231.0009,103.0296,257.2408,0,U,57182,999,16420,.33558861E-3,.9092E-4,0
MONITOR-2 (RS39S),2023-091U,2026-06-16T14:06:45.390240,15.18905860,.00127238,97.5073,225.8748,112.8656,247.3923,0,U,57184,999,16386,.20569114E-3,.4232E-4,0
SVYATOBOR 1 (RS60S),2023-091X,2026-06-16T14:24:45.241632,15.26607248,.0010887,97.5090,231.4142,96.1567,264.0912,0,U,57187,999,16422,.29253774E-3,.7599E-4,0
VIZARD-METEO (RS38S),2023-091Z,2026-06-16T13:28:17.016384,15.36009102,.00082967,97.5094,237.0338,79.6026,280.6152,0,U,57189,999,16459,.38656499E-3,.13493E-3,0
POLYTECH-UNIVERSE 3 (RS46S),2023-091AB,2026-06-16T13:11:11.277312,15.19108549,.00168207,97.5047,225.3409,128.7799,231.4941,0,U,57191,999,16385,.203098E-3,.4209E-4,0
UTMN 2 (RS27S),2023-091AP,2026-06-16T14:29:11.827968,15.32040058,.00092894,97.5088,234.8164,85.5494,274.6808,0,U,57203,999,16445,.35292695E-3,.10856E-3,0
